[{"OBJECT_NAME":"YAOGAN-12","OBJECT_ID":"2011-066B","EPOCH":"2026-03-09T23:39:51.505056","MEAN_MOTION":15.25407482,"ECCENTRICITY":0.00091131,"INCLINATION":97.1283,"RA_OF_ASC_NODE":112.2403,"ARG_OF_PERICENTER":209.5466,"MEAN_ANOMALY":150.5259,"EPHEMERIS_TYPE":0,"CLASSIFICATION_TYPE":"U","NORAD_CAT_ID":37875,"ELEMENT_SET_NO":999,"REV_AT_EPOCH":79691,"BSTAR":0.0002218082,"MEAN_MOTION_DOT":5.54e-5,"MEAN_MOTION_DDOT":0},{"OBJECT_NAME":"STARLINK-30176","OBJECT_ID":"2023-107W","EPOCH":"2026-03-09T02:52:57.165312","MEAN_MOTION":15.26730149,"ECCENTRICITY":0.00017376,"INCLINATION":43.0011,"RA_OF_ASC_NODE":338.9988,"ARG_OF_PERICENTER":274.2479,"MEAN_ANOMALY":85.8174,"EPHEMERIS_TYPE":0,"CLASSIFICATION_TYPE":"U","NORAD_CAT_ID":57477,"ELEMENT_SET_NO":999,"REV_AT_EPOCH":14506,"BSTAR":0.0011458381,"MEAN_MOTION_DOT":0.00030594,"MEAN_MOTION_DDOT":0}]
